     4.01           OBSERVATION DATA    M                   RINEX VERSION / TYPE
sbf2rin-15.10.3                         20260924 000204 UTC PGM / RUN BY / DATE
ROBHeader-20250307  ROB                 20260924 000235 UTC PGM / RUN BY / DATE
START OF RINEX header check by ROB      20260924 041304 UTC COMMENT
 with respect to                                            COMMENT
 https://gnss-metadata.eu/v1/sitelog/exportlog?id=BRUX00BEL COMMENT
RINEX file downloaded from BEV                              COMMENT
END OF RINEX header check by ROB                            COMMENT
BRUX00BEL                                                   MARKER NAME
13101M010                                                   MARKER NUMBER
GEODETIC                                                    MARKER TYPE
GNSSatROB           Royal Observatory of Belgium            OBSERVER / AGENCY
https://doi.org/10.24414/ROB-GNSS-BRUX00BEL                 DOI
CC-BY-4.0                                                   LICENSE OF USE
https://gnss-metadata.eu/MOID/BRUX00BEL                     STATION INFORMATION
3057609             SEPT POLARX5TR      5.7.0               REC # / TYPE / VERS
00464               JAVRINGANT_DM   SCIS                    ANT # / TYPE
  4027881.8468   306998.2610  4919498.6524                  APPROX POSITION XYZ
        0.4689        0.0000        0.0010                  ANTENNA: DELTA H/E/N
G   22 C1C L1C D1C S1C C1W S1W C2W L2W D2W S2W C2L L2L D2L  SYS / # / OBS TYPES
       S2L C5Q L5Q D5Q S5Q C1L L1L D1L S1L                  SYS / # / OBS TYPES
E   20 C1C L1C D1C S1C C6B L6B D6B S6B C5Q L5Q D5Q S5Q C7Q  SYS / # / OBS TYPES
       L7Q D7Q S7Q C8Q L8Q D8Q S8Q                          SYS / # / OBS TYPES
R   20 C1C L1C D1C S1C C1P L1P D1P S1P C2P L2P D2P S2P C2C  SYS / # / OBS TYPES
       L2C D2C S2C C3Q L3Q D3Q S3Q                          SYS / # / OBS TYPES
C   24 C1P L1P D1P S1P C5P L5P D5P S5P C2I L2I D2I S2I C7I  SYS / # / OBS TYPES
       L7I D7I S7I C6I L6I D6I S6I C7D L7D D7D S7D          SYS / # / OBS TYPES
I    4 C5A L5A D5A S5A                                      SYS / # / OBS TYPES
SEPTENTRIO RECEIVERS OUTPUT ALIGNED CARRIER PHASES.         COMMENT
NO FURTHER PHASE SHIFT APPLIED IN THE RINEX ENCODER.        COMMENT
    30.000                                                  INTERVAL
  2026     9    23     0     0    0.0000000     GPS         TIME OF FIRST OBS
  2026     9    23    23    59   30.0000000     GPS         TIME OF LAST OBS
   131                                                      # OF SATELLITES
DBHZ                                                        SIGNAL STRENGTH UNIT
    18                                                      LEAP SECONDS
 26 R01  1 R02 -4 R03  5 R04  6 R05  1 R06 -4 R07  5 R08  6 GLONASS SLOT / FRQ #
    R09 -2 R10 -7 R11  0 R12 -1 R13 -2 R14 -7 R15  0 R16 -1 GLONASS SLOT / FRQ #
    R17  4 R18 -3 R19  3 R20  2 R21  4 R22 -3 R23  3 R24  2 GLONASS SLOT / FRQ #
    R26 -6 R27 -5                                           GLONASS SLOT / FRQ #
                                                            END OF HEADER
> 2026 09 23 00 00  0.0000000  0 49
C06  38989284.432 6 204890086.84306      -408.674 6        40.188    38989283.279 7 153002360.02307      -305.098 7        43.906    38989281.479 7 203027450.93307      -404.872 7        42.781                                                                    38989281.638 7 164976444.92307      -328.925 7        43.656    38989281.517 7 156993716.45207      -313.087 7        43.844
C09                                                                                                                                  38081305.640 7 198299392.91807       467.870 7        44.625    38081308.612 7 153337693.57807       361.802 7        45.438    38081307.331 7 161134513.88307       380.117 7        44.125
C13  26100810.211 6 137160696.21206      2983.390 6        37.250    26100810.231 6 102425196.48106      2227.992 6        39.844    26100809.651 6 135913773.95306      2956.348 6        39.969                                                                    26100810.038 6 110441077.99906      2402.162 6        40.062    26100808.966 6 105097152.38506      2285.955 6        40.969
C19  26745955.413 5 140550935.23305     -1509.963 5        34.906    26745955.124 6 104956886.17406     -1127.621 6        39.062    26745954.622 6 139273207.50906     -1496.553 6        37.031                                                                    26745951.446 6 113170884.33206     -1216.011 6        39.812    26745953.344 6 107694882.04706     -1157.176 6        38.656
C21  26261322.466 6 138004189.30206      3016.926 6        37.625    26261322.158 6 103055070.18206      2252.842 6        40.656    26261320.463 6 136749587.96706      2989.326 6        39.875                                                                    26261318.281 6 111120229.59606      2429.236 6        41.469    26261320.085 6 105743451.78106      2311.608 6        40.312
C22  25020016.201 6 131481116.66606      1128.473 6        41.000    25020012.596 7  98183932.43907       842.739 7        42.969    25020014.458 7 130285796.28507      1118.257 7        42.625                                                                    25020010.207 7 105867876.25207       908.650 7        43.250    25020010.939 7 100745243.18207       864.654 7        42.969
C23  23486594.934 7 123422921.16407       910.328 7        46.625    23486589.971 8  92166458.64908       679.791 8        49.938    23486593.106 8 122300889.97908       902.044 8        48.500                                                                    23486587.191 8  99379470.71808       733.058 8        49.094    23486587.986 8  94570790.62808       697.565 8        49.469
C24  26593456.467 6 139749597.96006     -3558.275 6        37.438    26593453.940 6 104358493.31106     -2657.060 6        38.875    26593454.371 6 138479161.52106     -3525.878 6        39.344                                                                    26593453.321 6 112525670.84206     -2865.156 6        37.500    26593452.618 6 107080879.56006     -2726.388 6        40.219
C25  22780377.573 7 119711747.43907     -2026.500 7        47.625    22780376.987 8  89395150.56508     -1513.314 8        49.125    22780376.130 8 118623437.42208     -2008.133 8        49.812                                                                    22780376.177 8  96391281.27908     -1631.729 8        49.469    22780375.292 8  91727188.98108     -1552.770 8        49.125
C31  24144602.771 7 126880861.53307     -2711.437 7        42.719    24144604.639 7  94748744.43407     -2024.760 7        45.094    24144601.867 7 125727381.28307     -2686.847 7        45.062                                                                    24144602.341 7 102163835.35207     -2183.227 7        44.531    24144602.488 7  97220433.93707     -2077.618 7        44.750
C34  21299920.244 8 111931863.99608      -466.846 8        50.594    21299920.659 8  83585534.88408      -348.621 8        53.062    21299918.258 8 110914311.94508      -462.582 8        52.750                                                                    21299919.704 8  90126995.36408      -375.911 8        53.312    21299918.901 8  85766009.75508      -357.676 8        53.094
C38  23622391.713 7 124136533.81907      2454.120 7        44.375    23622393.201 7  92699377.85307      1832.559 7        45.938    23622390.097 7 123008013.20207      2431.787 7        46.531                                                                    23622391.114 7  99954099.02307      1976.107 7        46.125    23622391.236 7  95117616.16607      1880.451 7        46.062
E02  24180018.354 8 127066934.81808     -1851.035 8        48.844    24180017.375 8 103138779.56908     -1502.479 8        52.281    24180018.997 8  94887700.77808     -1382.231 8        51.594    24180016.466 8  97363017.41008     -1418.335 8        51.562    24180017.745 9  96125364.66809     -1400.277 9        54.594
E11  25587162.317 5 134461481.99605     -2856.225 5        33.875    25587158.556 6 109140818.47906     -2318.376 6        38.875    25587160.424 6 100409570.92706     -2133.053 6        37.312    25587158.215 6 103028937.82006     -2188.698 6        37.625    25587159.670 6 101719258.94306     -2160.855 6        40.531
E15  28195790.076 5 148169868.44105      3115.802 5        35.062    28195789.922 6 120267755.80106      2528.914 6        39.344    28195794.022 6 110646352.44906      2326.716 6        38.344    28195791.244 6 113532767.27606      2387.459 6        38.094    28195792.879 6 112089565.43506      2357.094 6        41.219
E19  27479721.934 4 144406917.98504       -34.164 4        26.812    27479719.832 5 117213392.72105       -27.253 5        31.906    27479721.604 5 107836332.45405       -25.233 5        32.031    27479719.615 5 110649447.40205       -25.732 5        31.969    27479720.782 5 109242890.99905       -25.480 5        35.000
E25  28525870.090 3                     -3021.500 3        20.375                                                                    28525875.935 4 111941769.00704     -2257.530 4        27.062                                                                    28525875.379 4 113401873.35304     -2286.554 4        28.906
E27  27521612.648 6 144627055.80706      2761.541 6        38.094    27521612.177 6 117392101.52406      2241.357 6        41.719    27521614.189 6 108000738.38906      2062.181 6        41.156    27521611.520 6 110818138.86306      2115.891 6        41.281    27521612.860 7 109409442.19907      2089.030 7        44.250
E28  28868227.789 4                      1173.241 4        24.375    28868226.002 5 123135995.14905       952.686 5        30.062    28868228.076 5 113285126.66205       875.907 5        31.938    28868225.726 4 116240380.07504       899.137 4        29.469    28868226.527 5 114762758.44705       887.514 5        33.844
E30  24199967.984 8 127171768.65808       971.518 8        49.344    24199965.668 9 103223828.33509       788.568 9        54.188    24199968.841 8  94965945.40508       725.461 8        52.688    24199966.522 8  97443300.32308       744.408 8        53.062    24199967.678 9  96204630.43809       734.936 9        55.875
E34  24202683.116 8 127186012.14408      1842.553 8        48.781    24202682.071 8 103235396.77308      1495.529 8        52.500    24202684.869 8  94976583.50008      1375.883 8        51.219    24202682.654 8  97454223.47608      1411.786 8        51.750    24202683.872 9  96215410.56209      1393.834 9        54.500
E36  24008666.761 8 126166436.50208     -1035.869 8        48.812    24008665.163 8 102407822.91208      -840.770 8        53.250    24008668.573 8  94215222.44808      -773.494 8        51.750    24008666.373 8  96672993.82108      -793.693 8        52.531    24008667.605 9  95444112.70909      -783.596 9        55.125
G05  25576546.935 5 134405701.57405     -3353.971 5        33.219    25576546.694 2        16.625    25576544.666 2 104731720.35802     -2613.511 2        16.625    25576545.459 4 104731726.32404     -2613.314 4        29.594
G07  24865005.080 6 130666487.76006      1498.414 6        37.719    24865004.674 4        28.875    24865001.974 4 101818033.29704      1167.597 4        28.875    24865002.697 5 101818028.33305      1167.177 5        35.250
G08  23534294.954 6 123673571.04006      3286.556 6        38.156    23534294.364 5        32.312    23534295.402 5  96369026.93305      2560.960 5        32.312    23534296.922 6  96369029.93006      2560.956 6        37.281    23534294.096 7  92353650.34407      2454.153 7        43.938
G10  23618756.710 7 124117414.07907      3281.492 7        43.500    23618756.317 6        39.781    23618757.466 6  96714862.29206      2557.004 6        39.781    23618757.898 6  96714871.29406      2557.041 6        39.375    23618755.249 7  92685075.59607      2450.413 7        46.375
G15  24732946.817 5 129972516.35705      2242.049 5        35.094    24732946.616 4        24.438    24732944.948 4 101277282.78304      1747.040 4        24.438    24732945.394 5 101277273.76205      1747.062 5        32.438
G16  20173836.699 8 106014279.60808      -572.901 8        48.656    20173835.912 7        44.469    20173833.514 7  82608528.21607      -446.417 7        44.469
G18  21752173.323 7 114308497.07707     -2287.570 7        47.156    21752173.154 6        38.438    21752171.093 6  89071568.61606     -1782.522 6        38.438    21752171.179 7  89071564.61607     -1782.579 7        46.562    21752174.766 8  85360272.12408     -1708.246 8        51.531    21752173.236 7 114308488.07207     -2287.567 7        47.312
G20  25319856.308 5 133056747.84505      1073.307 5        33.969    25319856.334 2        12.281    25319854.003 2 103680575.72602       836.349 2        12.281    25319855.006 5 103680592.68705       836.415 5        34.875    25319856.596 6  99360556.44706       801.420 6        39.125    25319856.474 5 133056749.85405      1073.092 5        33.688
G23  21892817.993 7 115047555.71207      2007.236 7        46.312    21892817.797 6        36.844    21892816.259 6  89647443.43006      1564.079 6        36.844    21892816.347 7  89647442.43207      1564.112 7        45.781    21892819.958 8  85912153.69108      1498.948 8        50.656    21892817.898 7 115047555.71407      2007.246 7        46.438
G26  21841606.127 7 114778466.01307     -2816.182 7        47.656    21841605.667 8        48.188    21841606.965 8  89437795.45908     -2194.429 8        48.188    21841607.343 7  89437791.45407     -2194.390 7        44.500    21841605.645 8  85711220.64808     -2103.002 8        51.906
G27  20706390.185 8 108812858.37808      1885.063 8        49.594    20706389.685 8        53.062    20706389.559 8  84789258.99808      1468.881 8        53.062    20706389.975 7  84789255.00407      1468.885 7        47.062    20706388.826 8  81256371.99408      1407.659 8        53.812
G29  25297265.612 5 132938111.10605     -3344.682 5        31.656    25297265.192 3        18.938    25297264.824 3 103588172.16803     -2606.242 3        18.938    25297265.716 5 103588167.20205     -2606.475 5        30.938
G31  26001603.089 4                     -3560.313 4        24.531                                                                                                    26001604.725 3                     -2773.802 3        23.938
I01  35659961.992 6 139937351.37106      -948.709 6        36.031
I02  39708803.597 6 155825968.47006      -593.219 6        36.812
I06  24129948.804 5  94691098.37105     -2179.133 5        35.375
R01  22540952.836 7 120494329.66907      1288.933 7        42.906    22540952.253 6 120494336.68806      1288.847 6        41.781
R02  23995662.837 7 128045457.50007      3766.613 7        42.125    23995663.473 6 128045457.51406      3766.597 6        41.281    23995667.696 6  99590927.01806      2929.558 6        38.688    23995667.202 6  99590940.02406      2929.513 6        39.250
R08  23596464.426 5 126358089.78205     -1842.866 5        35.125    23596465.656 5 126358010.81705     -1843.052 5        33.531    23596466.761 6  98278454.30406     -1433.466 6        39.531    23596466.743 6  98278464.27106     -1433.306 6        39.469
R09  23240313.198 7 124101962.40707      4043.553 7        42.312    23240313.358 7 124101975.42007      4043.523 7        42.031    23240314.936 6  96523774.14206      3144.871 6        40.781    23240315.088 6  96523768.12406      3145.199 6        40.812
R15  20646405.799 8 110328168.01908     -3355.505 8        51.000    20646406.105 8 110328183.01708     -3355.493 8        51.125    20646409.030 8  85810829.40608     -2609.826 8        48.656    20646408.709 8  85810897.40708     -2609.794 8        48.406
R16  19755241.000 8 105528987.40908       935.997 8        52.156    19755241.581 8 105528985.41908       935.983 8        52.281    19755244.103 8  82078133.53808       727.995 8        51.469    19755244.057 8  82078130.53808       727.990 8        50.594    19755230.594 8  79209105.77408       702.574 8        51.375
R17  19396268.083 8 103793377.26108     -1335.248 8        52.500    19396268.355 8 103793401.26508     -1335.218 8        52.344    19396270.507 8  80728224.75308     -1038.517 8        51.125    19396270.540 8  80728228.75008     -1038.509 8        51.125
R18  19974498.605 8 106625261.72308      1982.557 8        51.781    19974499.103 8 106625255.73008      1982.570 8        51.312    19974501.400 8  82930782.25408      1542.005 8        49.750    19974501.499 8  82930757.25408      1541.956 8        49.250
R19  24317116.708 6 130080186.71506      3824.321 6        37.781    24317116.247 6 130080174.72606      3824.473 6        37.312    24317118.661 5 101173482.60605      2974.754 5        34.812    24317119.488 5 101173486.60005      2974.631 5        34.125    24317149.184 5  97500187.84205      2866.620 5        35.312
R24  23112610.976 7 123593592.46607     -3735.919 7        43.500    23112611.039 7 123593601.46407     -3735.923 7        42.344    23112614.351 6  96128401.14406     -2905.687 6        40.125    23112614.266 6  96128392.14606     -2905.662 6        40.906    23112600.000 6  92670611.58206     -2801.176 6        39.688
R26  24010436.618 6 128034220.10206     -2478.929 6        41.562    24010436.296 6 128034189.11006     -2478.981 6        40.656    24010438.385 6  99582163.90006     -1928.118 6        36.625    24010439.806 6  99582152.90406     -1928.089 6        38.031    24010285.817 6  96269817.51806     -1863.889 6        37.562
> 2026 09 23 00 00 30.0000000  0 49
C06  38991633.077 6 204902430.52506      -414.454 6        39.594    38991632.138 7 153011577.71407      -309.501 7        44.031    38991630.578 7 203039682.41607      -410.655 7        42.438                                                                    38991630.629 7 164986384.00007      -333.748 7        43.531    38991630.338 7 157003174.59807      -317.478 7        43.906
C09                                                                                                                                  38078628.326 7 198285451.96107       461.500 7        44.125    38078631.570 7 153326913.54507       356.909 7        45.656    38078630.103 7 161123185.72307       374.966 7        44.156
C13  26083786.989 6 137071234.62006      2980.514 6        37.406    26083786.668 6 102358390.81206      2225.667 6        40.406    26083785.462 6 135825125.65306      2953.468 6        40.219                                                                    26083786.656 6 110369044.02706      2399.961 6        40.750    26083784.762 6 105028603.93306      2283.885 6        40.719
C19  26754620.338 6 140596467.27406     -1525.308 6        36.344    26754619.933 6 104990887.27006     -1139.163 6        39.344    26754618.926 6 139318325.55106     -1511.371 6        37.781                                                                    26754616.063 6 113207546.41106     -1228.302 6        39.188    26754618.021 6 107729770.13606     -1168.826 6        38.500
C21  26244111.900 6 137913747.18706      3012.512 6        37.688    26244111.735 6 102987532.23206      2249.635 6        41.125    26244109.579 6 136659968.01106      2985.171 6        39.844                                                                    26244107.355 6 111047406.07706      2425.659 6        40.719    26244109.328 6 105674151.96606      2308.334 6        40.156
C22  25013619.849 6 131447505.50306      1112.326 6        39.656    25013616.523 7  98158833.21407       830.590 7        43.156    25013618.397 7 130252490.68007      1102.220 7        42.688                                                                    25013614.152 7 105840812.72707       895.607 7        43.125    25013615.070 7 100719489.19807       852.303 7        43.562
C23  23481444.434 7 123395856.51607       893.903 7        45.625    23481439.695 8  92146248.03508       667.483 8        50.000    23481442.988 8 122274071.37108       885.734 8        48.219                                                                    23481436.976 8  99357678.40808       719.731 8        49.000    23481437.759 8  94550052.78308       684.924 8        49.750
C24  26613768.857 6 139856338.74106     -3557.744 6        37.438    26613766.121 6 104438202.38606     -2656.795 6        38.938    26613766.913 6 138584931.91806     -3525.441 6        39.031                                                                    26613765.875 6 112611618.01306     -2864.662 6        39.156    26613764.000 6 107162667.96106     -2726.273 6        38.594
C25  22791986.059 7 119772749.18507     -2040.257 7        47.031    22791985.193 8  89440703.80208     -1523.584 8        49.188    22791984.286 8 118683884.60408     -2021.677 8        49.594                                                                    22791984.442 8  96440399.55708     -1642.820 8        49.312    22791983.589 8  91773930.56508     -1563.328 8        49.219
C31  24160092.335 7 126962259.39807     -2715.028 7        42.594    24160094.144 7  94809528.53507     -2027.477 7        45.250    24160090.866 7 125808039.18807     -2690.419 7        43.844                                                                    24160092.026 7 102229376.48807     -2186.237 7        44.656    24160091.980 7  97282803.71707     -2080.419 7        44.656
C34  21302615.704 8 111946028.90608      -477.495 8        50.156    21302616.132 8  83596112.58008      -356.574 8        53.094    21302613.598 8 110928348.08608      -473.147 8        52.438                                                                    21302615.168 8  90138400.87808      -384.456 8        53.219    21302614.366 8  85776863.39008      -365.857 8        53.250
C38  23608400.010 7 124063007.34207      2447.669 7        44.062    23608401.680 7  92644471.73807      1827.864 7        46.219    23608398.419 7 122935155.14907      2425.357 7        46.625                                                                    23608399.498 7  99894895.91207      1970.757 7        46.188    23608399.639 7  95061277.71807      1875.498 7        46.094
E02  24190613.048 8 127122610.53508     -1860.738 8        48.406    24190612.141 8 103183970.88808     -1510.349 8        51.719    24190613.690 8  94929276.78608     -1389.534 8        51.625    24190611.164 8  97405678.00708     -1425.755 8        51.719    24190612.499 9  96167482.97009     -1407.641 9        54.688
E11  25603477.338 5 134547215.38605     -2859.030 5        33.500    25603473.240 6 109210407.28606     -2320.718 6        38.688    25603474.486 6 100473592.64306     -2135.366 6        37.000    25603473.024 6 103094629.64606     -2190.803 6        38.281    25603474.005 6 101784115.71606     -2163.103 6        40.750
E15  28178008.494 5 148076425.05905      3113.960 5        34.969    28178008.220 6 120191908.90206      2527.379 6        38.219    28178012.526 6 110576573.30706      2325.258 6        39.219    28178009.623 6 113461167.81806      2385.755 6        39.156    28178011.396 7 112018876.13407      2355.492 7        42.219
E19  27479956.240 4 144408143.21204       -48.264 4        29.250    27479952.982 5 117214387.16905       -38.838 5        31.094    27479954.830 5 107837247.33005       -36.110 5        31.906    27479953.432 5 110650386.13905       -36.904 5        33.719    27479954.411 5 109243817.80405       -36.499 5        35.844
E25  28543133.022 3                     -3024.176 3        23.031                                                                    28543134.679 4 112009494.50104     -2258.910 4        26.188    28543131.745 4 114931467.86314     -2317.494 4        25.594    28543133.213 4 113470482.25804     -2288.085 4        28.781
E27  27505856.342 6 144544256.45906      2758.645 6        37.375    27505856.003 6 117324894.25906      2239.083 6        41.156    27505857.735 6 107938907.73206      2059.949 6        40.906    27505855.510 7 110754695.22807      2113.608 7        42.094    27505856.633 7 109346805.05407      2086.775 7        44.469
E28  28861565.389 4                      1161.163 4        24.844    28861563.301 5 123107581.33305       942.177 5        31.250    28861566.124 5 113258985.90005       866.621 5        32.969    28861563.664 5 116213557.38605       889.548 5        32.719    28861565.111 5 114736276.72205       878.092 5        35.844
E30  24194452.066 8 127142782.55008       960.816 8        48.719    24194449.734 8 103200300.65008       779.884 8        53.594    24194452.933 8  94944299.92908       717.515 8        52.750    24194450.628 8  97421090.18108       736.271 8        53.219    24194451.807 9  96182702.62909       726.889 9        55.969
E34  24192194.756 8 127130895.37508      1831.921 8        48.469    24192193.693 8 103190659.14708      1486.977 8        52.031    24192196.415 8  94935424.89008      1367.976 8        51.312    24192194.227 8  97411991.16408      1403.657 8        52.000    24192195.471 9  96173715.10109      1385.816 9        54.625
E36  24014612.637 8 126197681.80308     -1047.174 8        48.250    24014610.849 8 102433184.36008      -849.985 8        52.812    24014614.369 8  94238554.97908      -781.978 8        51.812    24014612.109 8  96696935.02808      -802.414 8        52.719    24014613.392 9  95467749.57709      -792.200 9        55.281
G05  25595719.958 5 134506453.79905     -3362.970 5        31.594    25595719.726 3        18.094    25595717.691 3 104810228.56003     -2620.493 3        18.094    25595718.019 5 104810234.58805     -2620.277 5        30.344
G07  24856493.918 6 130621763.29706      1483.271 6        38.656    24856493.494 4        28.469    24856491.703 4 101783183.07004      1155.799 4        28.469    24856491.230 5 101783178.09105      1155.987 5        34.125
G08  23515543.410 6 123575034.97106      3282.382 6        37.938    23515542.802 5        31.438    23515544.503 5  96292245.61705      2557.701 5        31.438    23515545.361 6  96292248.60206      2557.940 6        37.125    23515543.414 7  92280068.25407      2451.264 7        44.156
G10  23600043.633 7 124019074.03107      3274.562 7        43.188    23600043.244 6        39.500    23600043.565 6  96638233.69806      2551.610 6        39.500    23600044.276 6  96638242.71006      2551.616 6        40.281    23600041.871 7  92611639.86807      2445.237 7        46.281
G15  24720185.300 5 129905451.40905      2228.784 5        34.938    24720185.113 3        23.781    24720182.798 3 101225024.41903      1736.711 3        23.781    24720182.813 5 101225015.39405      1736.816 5        31.594
G16  20177163.792 8 106031762.91608      -592.697 8        48.844    20177163.010 7        44.625    20177160.499 7  82622151.56407      -461.842 7        44.625
G18  21765265.105 7 114377294.89907     -2298.930 7        47.531    21765264.945 6        38.469    21765262.689 6  89125177.30406     -1791.375 6        38.469    21765263.160 7  89125173.30607     -1791.372 7        46.594    21765266.645 8  85411647.10908     -1716.697 8        51.656    21765265.217 7 114377285.89707     -2298.905 7        47.031
G20  25313774.389 5 133024790.46405      1057.188 5        35.656    25313774.349 2        14.062    25313772.901 2 103655673.81302       823.778 2        14.062    25313773.309 5 103655690.82105       823.683 5        35.656    25313775.209 6  99336692.18306       789.272 6        38.812    25313775.045 5 133024792.48105      1057.277 5        34.875
G23  21881405.515 7 114987583.29807      1990.904 7        46.531    21881405.323 6        37.000    21881403.932 6  89600711.70906      1551.350 6        37.000    21881403.820 7  89600710.71607      1551.316 7        45.875    21881407.623 8  85867369.13108      1486.667 8        50.906    21881405.391 7 114987583.29907      1990.844 7        46.031
G26  21857718.218 7 114863135.23707     -2828.466 7        47.188    21857717.762 8        48.188    21857719.035 8  89503771.45508     -2203.998 8        48.188    21857719.032 7  89503767.45607     -2204.000 7        44.688    21857717.602 8  85774447.63908     -2112.144 8        51.875
G27  20695663.792 8 108756490.31508      1872.805 8        49.750    20695663.292 8        53.281    20695663.098 8  84745335.84008      1459.328 8        53.281    20695663.341 7  84745331.84507      1459.319 7        47.219    20695662.342 8  81214278.96808      1398.529 8        53.938
G29  25316364.911 4 133038482.80404     -3345.975 4        28.844    25316364.536 2        16.219    25316364.716 2 103666383.88902     -2607.259 2        16.219    25316365.240 5 103666378.95705     -2607.780 5        30.000
G31  26021906.768 3                     -3555.968 3        22.938                                                                                                    26021909.639 4                     -2770.037 4        24.219
I01  35667213.308 5 139965804.66805      -948.287 5        35.719
I02  39713341.261 6 155843775.41206      -593.682 6        36.250
I06  24146605.447 5  94756464.14405     -2178.787 5        35.281
R01  22533788.681 7 120456037.26207      1263.986 7        42.531    22533788.651 6 120456044.27806      1264.011 6        41.438
R02  23974507.715 6 127932566.55106      3759.414 6        41.500    23974507.305 6 127932566.56206      3759.475 6        40.656    23974511.756 6  99503122.95606      2924.195 6        38.500    23974511.197 6  99503135.96006      2924.050 6        38.469
R08  23606854.089 5 126413722.47505     -1865.745 5        34.156    23606853.476 5 126413643.49405     -1865.893 5        33.281    23606855.632 6  98321724.16506     -1451.371 6        39.156    23606855.140 6  98321734.13506     -1451.185 6        39.375
R09  23217621.343 6 123980790.42806      4034.522 6        40.938    23217620.688 6 123980803.44506      4034.558 6        40.156    23217623.012 6  96429529.31406      3137.986 6        40.219    23217622.882 6  96429523.30706      3138.026 6        40.281
R15  20665293.824 8 110429101.10308     -3373.349 8        51.000    20665294.283 8 110429116.09808     -3373.332 8        50.906    20665297.298 8  85889332.89108     -2623.708 8        48.500    20665297.219 8  85889400.89108     -2623.729 8        48.719
R16  19750059.257 8 105501305.02608       909.459 8        52.625    19750059.561 8 105501303.03008       909.483 8        52.375    19750061.873 8  82056602.79108       707.387 8        51.219    19750062.022 8  82056599.79308       707.382 8        50.625    19750048.382 8  79188327.61708       682.659 8        51.188
R17  19403797.252 8 103833667.68408     -1350.835 8        52.219    19403797.427 8 103833691.69708     -1350.819 8        52.375    19403799.915 8  80759561.75408     -1050.682 8        51.188    19403799.870 8  80759565.74708     -1050.635 8        51.281
R18  19963401.006 8 106566022.25508      1966.710 8        51.562    19963401.296 8 106566016.26408      1966.708 8        51.250    19963403.995 8  82884707.12408      1529.731 8        49.844    19963404.311 8  82884682.12508      1529.650 8        49.469
R19  24295678.237 6 129965504.77306      3821.002 6        38.562    24295678.712 6 129965492.79106      3820.875 6        37.500    24295680.294 5 101084285.47105      2971.978 5        34.094    24295681.535 5 101084289.49905      2971.893 5        34.625    24295710.760 5  97414229.27605      2864.127 5        34.188
R24  23133575.249 7 123705695.00207     -3737.533 7        44.438    23133575.991 7 123705704.00507     -3737.524 7        43.531    23133578.744 6  96215591.98306     -2906.940 6        40.625    23133578.115 6  96215582.99206     -2906.952 6        41.188    23133563.614 6  92754666.19506     -2802.466 6        39.219
R26  24024438.933 6 128108886.96506     -2498.665 6        41.406    24024438.739 6 128108855.98506     -2498.894 6        40.406    24024441.557 6  99640238.14206     -1943.535 6        37.250    24024441.138 6  99640227.12906     -1943.323 6        37.875    24024288.259 6  96325960.42806     -1879.008 6        37.312
